LANDSAT 4               
<<<<<<< .mine
1 13367U 82072A   13104.13559282  .00002120  00000-0  14365-3 0  3220
2 13367  98.2649 130.8533 0014892 327.4327  73.4659 15.07643633654529
=======
1 13367U 82072A   13108.11655933  .00001781  00000-0  12140-3 0  3256
2 13367  98.2645 135.1304 0014906 312.2118  82.1665 15.07651633655125
>>>>>>> .r6620
TDRS 1                  
<<<<<<< .mine
1 13969U 83026B   13100.38604595 -.00000119  00000-0  10000-3 0  5556
2 13969  13.9108 359.6561 0021246 125.8274 234.3178  0.98745117 82810
=======
1 13969U 83026B   13106.46207344 -.00000233  00000-0  10000-3 0  5571
2 13969  13.9127 359.6006 0021365 125.9895 234.1732  0.98746520 82876
>>>>>>> .r6620
LANDSAT 5               
<<<<<<< .mine
1 14780U 84021A   13104.12389187  .00000321  00000-0  69735-4 0  9049
2 14780  98.1032 169.2655 0002567 117.4344 242.7120 14.64293888548876
=======
1 14780U 84021A   13110.19981826 -.00000703  00000-0 -11491-3 0  9198
2 14780  98.1015 175.2604 0016946 104.1038 256.0413 14.67597391549768
>>>>>>> .r6620
ERBS                    
<<<<<<< .mine
1 15354U 84108B   13103.19110439  .00007305  00000-0  32172-3 0  1989
2 15354  57.0146 133.2597 0023317 112.9666 247.3843 15.22643575564028
=======
1 15354U 84108B   13107.45851667  .00002537  00000-0  12062-3 0  2010
2 15354  57.0129 115.4671 0022810 119.8618 240.4698 15.22672856564671
>>>>>>> .r6620
TDRS 3                  
<<<<<<< .mine
1 19548U 88091B   13103.23916600 -.00000303  00000-0  00000+0 0   591
2 19548  14.0827  24.8875 0013752 343.5254 230.4370  1.00278482 77149
=======
1 19548U 88091B   13107.48271484 -.00000296  00000-0  00000+0 0   621
2 19548  14.0879  24.8407 0013667 345.6676 320.2888  1.00276314 77181
>>>>>>> .r6620
TDRS 4                  
<<<<<<< .mine
1 19883U 89021B   13101.57081790 -.00000226  00000-0  00000+0 0  3884
2 19883  11.3983  31.4999 0012453 225.8025 134.0331  0.98485394260610
=======
1 19883U 89021B   13105.63219772 -.00000195  00000-0  00000+0 0  3906
2 19883  11.4047  31.4598 0012256 225.0146 134.8288  0.98484679260652
>>>>>>> .r6620
HST                     
<<<<<<< .mine
1 20580U 90037B   13103.80976176  .00002961  00000-0  19990-3 0  2167
2 20580  28.4711 334.8143 0003393  26.0764  49.5079 15.03471949 59998
=======
1 20580U 90037B   13107.72940891  .00001584  00000-0  10118-3 0  2193
2 20580  28.4702 309.1211 0003456  63.1635  29.3970 15.03482263 60582
>>>>>>> .r6620
TDRS 5                  
<<<<<<< .mine
1 21639U 91054B   13103.68854801  .00000089  00000-0  00000+0 0  2672
2 21639  12.6497  38.8162 0019526 350.3292 253.0595  1.00275391 79460
=======
1 21639U 91054B   13109.70313810  .00000099  00000-0  00000+0 0  2728
2 21639  12.6599  38.7454 0019547 352.4134 262.3258  1.00277133 79529
>>>>>>> .r6620
TOPEX/POSEIDON          
<<<<<<< .mine
1 22076U 92052A   13103.15383662 -.00000031  00000-0  12912-3 0    69
2 22076  66.0427  50.9787 0008222 273.8435 172.6308 12.80974046967040
=======
1 22076U 92052A   13109.85233856 -.00000069  00000-0 -33888-4 0    92
2 22076  66.0436  37.0647 0008161 273.5319 100.1005 12.80974278967903
>>>>>>> .r6620
TDRS 6                  
<<<<<<< .mine
1 22314U 93003B   13103.70477949 -.00000292  00000-0  00000+0 0  2921
2 22314  12.0718  41.6342 0012418 340.5486  27.8323  1.00271476 74182
=======
1 22314U 93003B   13108.05482322 -.00000284  00000-0  00000+0 0  2959
2 22314  12.0794  41.5829 0012423 342.8544 155.8637  1.00269343 74226
>>>>>>> .r6620
TDRS 7                  
<<<<<<< .mine
1 23613U 95035B   13104.08303525 -.00000202  00000-0  00000+0 0  4384
2 23613  13.5912  32.2758 0033690 355.3378 289.6188  1.00274623 64995
=======
1 23613U 95035B   13109.54412446 -.00000193  00000-0  00000+0 0  4427
2 23613  13.5993  32.2134 0033671 356.4464  99.9888  1.00272968 65045
>>>>>>> .r6620
RXTE (XTE)              
<<<<<<< .mine
1 23757U 95074A   13103.14506949  .00011942  00000-0  30077-3 0  8777
2 23757  22.9885 112.6357 0005986 298.3031 127.6221 15.37405561959965
=======
1 23757U 95074A   13110.16180889  .00005529  00000-0  13174-3 0  8827
2 23757  22.9896  61.8533 0006570  29.0029  82.6290 15.37489068961046
>>>>>>> .r6620
TRMM                    
<<<<<<< .mine
1 25063U 97074A   13104.14384609  .00019200  00000-0  26911-3 0  2938
2 25063  34.9595  98.3329 0000832 247.5347 183.4778 15.55806558877820
=======
1 25063U 97074A   13110.18464586  .00016015  00000-0  22288-3 0  2981
2 25063  34.9598  58.3761 0001485 229.3379 255.6505 15.56022038878765
>>>>>>> .r6620
KIKU-7 (ETS-VII)        
<<<<<<< .mine
1 25064U 97074B   13103.59592370  .00014466  00000-0  39519-3 0  8723
2 25064  34.9678 168.7929 0004680   4.4273 144.5997 15.36527057854834
=======
1 25064U 97074B   13110.14243859  .00005929  00000-0  16236-3 0  8777
2 25064  34.9681 126.7431 0004261  76.7736 345.9892 15.36620127855846
>>>>>>> .r6620
ISS (ZARYA)             
<<<<<<< .mine
1 25544U 98067A   13104.23942130  .00014705  00000-0  24429-3 0  6092
2 25544  51.6460  65.6940 0010687 139.8447  66.6408 15.52271661824776
=======
1 25544U 98067A   13110.27262069  .00008419  00000-0  14271-3 0  6447
2 25544  51.6474  35.7007 0010356 160.4171 304.1803 15.52381363825715
>>>>>>> .r6620
LANDSAT 7               
<<<<<<< .mine
1 25682U 99020A   13104.17702127  .00000327  00000-0  82660-4 0   415
2 25682  98.1966 174.5927 0000713  42.6649 317.4612 14.57120367744512
=======
1 25682U 99020A   13110.15122848  .00000136  00000-0  40171-4 0   594
2 25682  98.1949 180.4743 0000496  86.7211 273.4053 14.57123534745382
>>>>>>> .r6620
FUSE 1                  
<<<<<<< .mine
1 25791U 99035A   13104.16451806  .00000414  00000-0  69709-4 0  4977
2 25791  24.9859  42.1969 0010184 193.0818 310.8126 14.42140770728231
=======
1 25791U 99035A   13110.11723028  .00000356  00000-0  52410-4 0  5020
2 25791  24.9860   5.6847 0010233 257.3328 253.8892 14.42142180729095
>>>>>>> .r6620
TERRA                   
<<<<<<< .mine
1 25994U 99068A   13104.19221892  .00000433  00000-0  10607-3 0   194
2 25994  98.2100 180.0387 0001217 100.1286 260.0059 14.57114855708599
=======
1 25994U 99068A   13110.16644684  .00000228  00000-0  60545-4 0   397
2 25994  98.2095 185.9295 0001199 100.5939 259.5419 14.57118644709462
>>>>>>> .r6620
TDRS 8                  
<<<<<<< .mine
1 26388U 00034A   13103.77369638 -.00000233  00000-0  00000+0 0  8707
2 26388   4.6072  72.4822 0002579 329.1005 168.0292  1.00278444 46936
=======
1 26388U 00034A   13109.66782733 -.00000226  00000-0  00000+0 0  8753
2 26388   4.6206  72.3998 0002815 340.5195 124.5217  1.00276231 46990
>>>>>>> .r6620
EO-1                    
<<<<<<< .mine
1 26619U 00075A   13104.17863770 -.00000139  00000-0 -18112-4 0  3709
2 26619  98.0351 168.1195 0008985 240.4623 119.5708 14.62909670660438
=======
1 26619U 00075A   13110.19763026  .00001135  00000-0  23074-3 0  3898
2 26619  98.0345 173.9832 0009296 219.6265 140.4311 14.62917051661312
>>>>>>> .r6620
TIMED                   
<<<<<<< .mine
1 26998U 01055B   13103.45042530  .00001022  00000-0  12274-3 0  4669
2 26998  74.0723 106.6121 0002187 241.1048 118.9912 14.85429218614707
=======
1 26998U 01055B   13110.05061312  .00000699  00000-0  85304-4 0  4723
2 26998  74.0729  93.5292 0002006 231.2889 128.8111 14.85436556615681
>>>>>>> .r6620
TDRS 9                  
<<<<<<< .mine
1 27389U 02011A   13103.36546617 -.00000273  00000-0  10000-3 0  1202
2 27389   2.1482 115.3753 0015886 275.2663 261.6287  1.00268072 42185
=======
1 27389U 02011A   13109.38458500 -.00000266  00000-0  10000-3 0  1249
2 27389   2.1598 114.9974 0015869 278.6912 271.3027  1.00266379 42243
>>>>>>> .r6620
AQUA                    
<<<<<<< .mine
1 27424U 02022A   13103.41898633  .00000737  00000-0  17375-3 0  6366
2 27424  98.2224  45.7754 0001478  92.8485  69.4343 14.57107683582080
=======
1 27424U 02022A   13107.80111792  .00000691  00000-0  16352-3 0  6405
2 27424  98.2137  50.0983 0001722  89.8740   5.6820 14.57107261582723
>>>>>>> .r6620
TDRS 10                 
<<<<<<< .mine
1 27566U 02055A   13102.37723361  .00000071  00000-0  10000-3 0  8404
2 27566   2.1683  64.5630 0009380 216.4695 241.2101  1.00277173 37992
=======
1 27566U 02055A   13107.58346487  .00000078  00000-0  10000-3 0  8432
2 27566   2.1802  64.6259 0008376 213.4708 323.6439  1.00279652 38049
>>>>>>> .r6620
SORCE                   
<<<<<<< .mine
1 27651U 03004A   13104.19295056  .00001543  00000-0  19486-3 0   753
2 27651  39.9941 158.5549 0024952 349.8674  60.1454 14.84428651553723
=======
1 27651U 03004A   13109.52259921  .00000868  00000-0  11636-3 0   800
2 27651  39.9944 129.0495 0024291  28.4818 100.1473 14.84435435554517
>>>>>>> .r6620
GALEX                   
<<<<<<< .mine
1 27783U 03017A   13103.19745572  .00000828  00000-0  14590-3 0  7578
2 27783  28.9995  39.1307 0004115 133.4530   6.6796 14.60639716531987
=======
1 27783U 03017A   13110.16728834  .00000576  00000-0  94904-4 0  7630
2 27783  28.9996 356.6548 0004019 202.6391 295.6260 14.60645038533004
>>>>>>> .r6620
GP-B                    
<<<<<<< .mine
1 28230U 04014A   13104.17785190  .00000535  00000-0  73902-4 0  7100
2 28230  89.9020 145.4551 0002715 126.6644 265.3067 14.76896249483879
=======
1 28230U 04014A   13109.68819788  .00000365  00000-0  49673-4 0  7156
2 28230  89.9011 145.3892 0002990 125.9284  23.9852 14.76899087484686
>>>>>>> .r6620
AURA                    
<<<<<<< .mine
1 28376U 04026A   13104.14884905  .00000959  00000-0  22302-3 0  7753
2 28376  98.2238  48.6950 0000810  65.7903 294.3379 14.57088761465246
=======
1 28376U 04026A   13107.51370374  .00000650  00000-0  15437-3 0  7789
2 28376  98.2209  52.0155 0000779  70.6317 289.4927 14.57092877465739
>>>>>>> .r6620
SWIFT                   
<<<<<<< .mine
1 28485U 04047A   13103.82441574  .00005194  00000-0  41336-3 0  4168
2 28485  20.5584 308.7558 0013273 139.7873 332.5613 14.96098286458769
=======
1 28485U 04047A   13108.82454236  .00002036  00000-0  14001-3 0  4208
2 28485  20.5579 274.2075 0012900 202.7532 262.6432 14.96120488459519
